{
  "type": "FeatureCollection",
  "features": [
    {
      "type": "Feature",
      "properties": {
        "norad_id": 54259,
        "name": "EUTELSAT 10B",
        "group": "eutelsat",
        "lat": 0.033064620868975256,
        "lon": -171.07334958858198,
        "alt_km": 35780.848497573985,
        "timestamp": "2025-12-02T07:10:08.781207+00:00",
        "meta_object_name": "EUTELSAT 10B",
        "meta_object_id": "2022-157A",
        "meta_epoch": "2025-12-01T12:08:49.696800",
        "meta_mean_motion": 1.00264673,
        "meta_eccentricity": 0.00017781,
        "meta_inclination": 0.0573,
        "meta_ra_of_asc_node": 104.3761,
        "meta_arg_of_pericenter": 67.7639,
        "meta_mean_anomaly": 90.7185,
        "meta_ephemeris_type": 0,
        "meta_classification_type": "U",
        "meta_norad_cat_id": 54259,
        "meta_element_set_no": 999,
        "meta_rev_at_epoch": 1104,
        "meta_bstar": 0,
        "meta_mean_motion_dot": 8.9e-07,
        "meta_mean_motion_ddot": 0,
        "tle_line1": "1 54259U 22157A   25335.50613075  .00000089  00000+0  00000+0 0  9992",
        "tle_line2": "2 54259   0.0573 104.3761 0001778  67.7639  90.7185  1.00264673 11040"
      },
      "geometry": {
        "type": "Point",
        "coordinates": [
          -171.07334958858198,
          0.033064620868975256
        ]
      }
    },
    {
      "type": "Feature",
      "properties": {
        "norad_id": 59346,
        "name": "EUTELSAT 36D",
        "group": "eutelsat",
        "lat": -0.01502046031196182,
        "lon": -145.20803526327154,
        "alt_km": 35786.276591131435,
        "timestamp": "2025-12-02T07:10:08.781218+00:00",
        "meta_object_name": "EUTELSAT 36D",
        "meta_object_id": "2024-059A",
        "meta_epoch": "2025-12-01T19:07:13.782720",
        "meta_mean_motion": 1.00269417,
        "meta_eccentricity": 4.75e-05,
        "meta_inclination": 0.001,
        "meta_ra_of_asc_node": 359.7672,
        "meta_arg_of_pericenter": 293.5935,
        "meta_mean_anomaly": 100.2453,
        "meta_ephemeris_type": 0,
        "meta_classification_type": "U",
        "meta_norad_cat_id": 59346,
        "meta_element_set_no": 999,
        "meta_rev_at_epoch": 616,
        "meta_bstar": 0,
        "meta_mean_motion_dot": 1.77e-06,
        "meta_mean_motion_ddot": 0,
        "tle_line1": "1 59346U 24059A   25335.79668730  .00000177  00000+0  00000+0 0  9994",
        "tle_line2": "2 59346   0.0010 359.7672 0000475 293.5935 100.2453  1.00269417  6169"
      },
      "geometry": {
        "type": "Point",
        "coordinates": [
          -145.20803526327154,
          -0.01502046031196182
        ]
      }
    }
  ]
}